[{"OBJECT_NAME":"STARLINK-5652","OBJECT_ID":"2023-013D","EPOCH":"2026-03-09T00:21:02.163168","MEAN_MOTION":15.02535196,"ECCENTRICITY":0.00010965,"INCLINATION":43.0043,"RA_OF_ASC_NODE":304.268,"ARG_OF_PERICENTER":272.4279,"MEAN_ANOMALY":87.6438,"EPHEMERIS_TYPE":0,"CLASSIFICATION_TYPE":"U","NORAD_CAT_ID":55334,"ELEMENT_SET_NO":999,"REV_AT_EPOCH":17160,"BSTAR":1.0299495e-5,"MEAN_MOTION_DOT":-6.4e-7,"MEAN_MOTION_DDOT":0},{"OBJECT_NAME":"UM5-EOSAT","OBJECT_ID":"2024-149CR","EPOCH":"2026-03-09T17:21:09.122400","MEAN_MOTION":15.00894746,"ECCENTRICITY":0.00087192,"INCLINATION":97.6855,"RA_OF_ASC_NODE":148.6787,"ARG_OF_PERICENTER":107.8964,"MEAN_ANOMALY":252.3212,"EPHEMERIS_TYPE":0,"CLASSIFICATION_TYPE":"U","NORAD_CAT_ID":60555,"ELEMENT_SET_NO":999,"REV_AT_EPOCH":8529,"BSTAR":0.00036077282,"MEAN_MOTION_DOT":4.537e-5,"MEAN_MOTION_DDOT":0}]
